42959,IRIDIUM 119,2017,100.4,860.0,+,86.4,Active,1,LEO,USA,USA,Commercial/Government,Communications,Falcon,1 42959U 17061E   24325.35040960  .00000575  00000+0  19828-3 0  9994,2 42959  86.3956 265.0052 0002592  83.2484 276.9007 14.34219910372563,14.3421991,0.0002592,LEO
42960,IRIDIUM 107,2017,100.4,860.0,+,86.4,Active,1,LEO,USA,USA,Commercial/Government,Communications,Falcon,1 42960U 17061F   24325.36943751  .00000582  00000+0  20089-3 0  9996,2 42960  86.3955 265.0151 0002455  75.0466 285.1001 14.34217499372578,14.34217499,0.0002455,LEO
42961,IRIDIUM 132,2017,100.4,860.0,+,86.4,Active,1,LEO,USA,USA,Commercial/Government,Communications,Falcon,1 42961U 17061G   24325.23623555  .00000555  00000+0  19113-3 0  9996,2 42961  86.3955 265.0544 0002357  79.5978 280.5483 14.34219010372555,14.3421901,0.0002357,LEO
42962,IRIDIUM 136,2017,100.4,860.0,+,86.4,Active,1,LEO,USA,USA,Commercial/Government,Communications,Falcon,1 42962U 17061H   24325.26797209  .00000551  00000+0  18977-3 0  9991,2 42962  86.3954 265.0450 0002517  79.7978 280.3502 14.34214994372579,14.34214994,0.0002517,LEO
42963,IRIDIUM 139,2017,100.4,860.0,+,86.4,Active,1,LEO,USA,USA,Commercial/Government,Communications,Falcon,1 42963U 17061J   24324.85568055  .00000460  00000+0  15711-3 0  9993,2 42963  86.3955 265.2699 0002452  79.6232 280.5240 14.34219473372521,14.34219473,0.0002452,LEO
42964,IRIDIUM 125,2017,100.4,860.0,+,86.4,Active,1,LEO,USA,USA,Commercial/Government,Communications,Falcon,1 42964U 17061K   24324.84299423  .00000602  00000+0  20774-3 0  9996,2 42964  86.3958 265.3258 0002891  81.8938 278.2585 14.34217260372531,14.3421726,0.0002891,LEO
43070,IRIDIUM 135,2017,100.4,860.0,+,86.4,Active,1,LEO,USA,USA,Commercial/Government,Communications,Falcon,1 43070U 17083A   24325.09619389 -.00000210  00000+0 -82205-4 0  9999,2 43070  86.4019 201.9241 0001756  86.7542 273.3855 14.34217307361863,14.34217307,0.0001756,LEO
43071,IRIDIUM 138,2017,100.4,860.0,+,86.4,Active,1,LEO,USA,USA,Commercial/Government,Communications,Falcon,1 43071U 17083B   24325.19133398  .00000441  00000+0  15057-3 0  9996,2 43071  86.4005 201.5826 0002580  91.4656 268.6835 14.34219015361862,14.34219015,0.000258,LEO
